ALOS-4 (DAICHI-4)       
1 60182U 24123A   24273.55466368  .00005564  00000+0  75132-3 0  9990
2 60182  97.9216   8.7106 0001403  96.8136 263.3235 14.79472026 13376
